start=new Date('2021-12-05T00:00:00.000Z').valueOf();
sats=[{"APOAPSIS":"548.438","RA_OF_ASC_NODE":"271.4336","COUNTRY_CODE":"US","GP_ID":"191101389","LAUNCH_DATE":"2020-08-07","SITE":"AFETR","MEAN_MOTION":"15.06403593","FILE":"3232651","SEMIMAJOR_AXIS":"6925.338","ELEMENT_SET_NO":"999","MEAN_MOTION_DOT":"0.00000336","CLASSIFICATION_TYPE":"U","TLE_LINE2":"2 46036  53.0537 271.4336 0001784  64.7982 295.3191 15.06403593 74384","REV_AT_EPOCH":"7438","INCLINATION":"53.0537","REF_FRAME":"TEME","CENTER_NAME":"EARTH","MEAN_MOTION_DDOT":"0.0000000000000","TLE_LINE1":"1 46036U 20055K   21338.76491619  .00000336  00000-0  41452-4 0  9993","ARG_OF_PERICENTER":"64.7982","ECCENTRICITY":"0.00017840","DECAY_DATE":null,"EPHEMERIS_TYPE":"0","EPOCH":"2021-12-04T18:21:28.758816","MEAN_ELEMENT_THEORY":"SGP4","TIME_SYSTEM":"UTC","RCS_SIZE":"LARGE","BSTAR":"0.00004145200000","PERIAPSIS":"545.967","NORAD_CAT_ID":"46036","OBJECT_NAME":"STARLINK-1560","MEAN_ANOMALY":"295.3191","OBJECT_ID":"2020-055K","PERIOD":"95.592","OBJECT_TYPE":"PAYLOAD"},{"MEAN_MOTION_DOT":"0.00000049","ELEMENT_SET_NO":"999","SEMIMAJOR_AXIS":"6925.341","FILE":"3232651","MEAN_MOTION":"15.06402344","LAUNCH_DATE":"2020-08-07","GP_ID":"191102140","SITE":"AFETR","COUNTRY_CODE":"US","RA_OF_ASC_NODE":"271.1648","APOAPSIS":"548.637","ECCENTRICITY":"0.00020660","ARG_OF_PERICENTER":"62.6884","TLE_LINE1":"1 46037U 20055L   21338.82758219  .00000049  00000-0  22170-4 0  9990","MEAN_MOTION_DDOT":"0.0000000000000","CENTER_NAME":"EARTH","REF_FRAME":"TEME","INCLINATION":"53.0551","TLE_LINE2":"2 46037  53.0551 271.1648 0002066  62.6884 297.4316 15.06402344 74381","REV_AT_EPOCH":"7438","CLASSIFICATION_TYPE":"U","PERIAPSIS":"545.776","BSTAR":"0.00002217000000","RCS_SIZE":"LARGE","TIME_SYSTEM":"UTC","MEAN_ELEMENT_THEORY":"SGP4","EPOCH":"2021-12-04T19:51:43.101216","EPHEMERIS_TYPE":"0","DECAY_DATE":null,"OBJECT_TYPE":"PAYLOAD","PERIOD":"95.592","OBJECT_ID":"2020-055L","MEAN_ANOMALY":"297.4316","OBJECT_NAME":"STARLINK-1565","NORAD_CAT_ID":"46037"},{"EPOCH":"2021-12-04T18:37:24.543264","EPHEMERIS_TYPE":"0","DECAY_DATE":null,"RCS_SIZE":"LARGE","TIME_SYSTEM":"UTC","MEAN_ELEMENT_THEORY":"SGP4","BSTAR":"0.00002024600000","PERIAPSIS":"545.607","OBJECT_NAME":"STARLINK-1567","NORAD_CAT_ID":"46038","MEAN_ANOMALY":"301.1538","OBJECT_TYPE":"PAYLOAD","OBJECT_ID":"2020-055M","PERIOD":"95.592","COUNTRY_CODE":"US","RA_OF_ASC_NODE":"271.3980","APOAPSIS":"548.843","FILE":"3232651","SEMIMAJOR_AXIS":"6925.360","MEAN_MOTION":"15.06396197","SITE":"AFETR","GP_ID":"191102391","LAUNCH_DATE":"2020-08-07","MEAN_MOTION_DOT":"0.00000020","ELEMENT_SET_NO":"999","REV_AT_EPOCH":"7437","TLE_LINE2":"2 46038  53.0546 271.3980 0002336  58.9680 301.1538 15.06396197 74375","CLASSIFICATION_TYPE":"U","CENTER_NAME":"EARTH","REF_FRAME":"TEME","INCLINATION":"53.0546","ARG_OF_PERICENTER":"58.9680","TLE_LINE1":"1 46038U 20055M   21338.77597851  .00000020  00000-0  20246-4 0  9999","MEAN_MOTION_DDOT":"0.0000000000000","ECCENTRICITY":"0.00023360"},{"MEAN_ANOMALY":"298.2783","NORAD_CAT_ID":"46039","OBJECT_NAME":"STARLINK-1569","OBJECT_TYPE":"PAYLOAD","OBJECT_ID":"2020-055N","PERIOD":"95.592","MEAN_ELEMENT_THEORY":"SGP4","TIME_SYSTEM":"UTC","RCS_SIZE":"LARGE","EPHEMERIS_TYPE":"0","DECAY_DATE":null,"EPOCH":"2021-12-04T12:25:51.707712","PERIAPSIS":"545.805","BSTAR":"0.00010292000000","INCLINATION":"53.0549","CENTER_NAME":"EARTH","REF_FRAME":"TEME","CLASSIFICATION_TYPE":"U","TLE_LINE2":"2 46039  53.0549 272.5561 0002040  61.8412 298.2783 15.06398714 74336","REV_AT_EPOCH":"7433","ECCENTRICITY":"0.00020400","TLE_LINE1":"1 46039U 20055N   21338.51795958  .00001252  00000-0  10292-3 0  9997","MEAN_MOTION_DDOT":"0.0000000000000","ARG_OF_PERICENTER":"61.8412","APOAPSIS":"548.630","COUNTRY_CODE":"US","RA_OF_ASC_NODE":"272.5561","ELEMENT_SET_NO":"999","MEAN_MOTION_DOT":"0.00001252","GP_ID":"191101139","SITE":"AFETR","LAUNCH_DATE":"2020-08-07","FILE":"3232651","MEAN_MOTION":"15.06398714","SEMIMAJOR_AXIS":"6925.352"},{"REF_FRAME":"TEME","CENTER_NAME":"EARTH","INCLINATION":"53.0552","TLE_LINE2":"2 46040  53.0552 270.9361 0001818  57.4382 302.6783 15.06396734 74353","REV_AT_EPOCH":"7435","CLASSIFICATION_TYPE":"U","ECCENTRICITY":"0.00018180","ARG_OF_PERICENTER":"57.4382","MEAN_MOTION_DDOT":"0.0000000000000","TLE_LINE1":"1 46040U 20055P   21338.87918858 -.00000878  00000-0 -40056-4 0  9991","RA_OF_ASC_NODE":"270.9361","COUNTRY_CODE":"US","APOAPSIS":"548.483","MEAN_MOTION_DOT":"-0.00000878","ELEMENT_SET_NO":"999","FILE":"3232651","SEMIMAJOR_AXIS":"6925.359","MEAN_MOTION":"15.06396734","LAUNCH_DATE":"2020-08-07","GP_ID":"191100890","SITE":"AFETR","MEAN_ANOMALY":"302.6783","OBJECT_NAME":"STARLINK-1576","NORAD_CAT_ID":"46040","OBJECT_ID":"2020-055P","PERIOD":"95.592","OBJECT_TYPE":"PAYLOAD","RCS_SIZE":"LARGE","TIME_SYSTEM":"UTC","MEAN_ELEMENT_THEORY":"SGP4","EPOCH":"2021-12-04T21:06:01.893312","DECAY_DATE":null,"EPHEMERIS_TYPE":"0","PERIAPSIS":"545.965","BSTAR":"-0.00004005600000"},{"INCLINATION":"53.0555","REF_FRAME":"TEME","CENTER_NAME":"EARTH","CLASSIFICATION_TYPE":"U","REV_AT_EPOCH":"7431","TLE_LINE2":"2 46041  53.0555 272.4130 0001804  59.9585 300.1583 15.06392850 74317","ECCENTRICITY":"0.00018040","MEAN_MOTION_DDOT":"0.0000000000000","TLE_LINE1":"1 46041U 20055Q   21338.55020039  .00000849  00000-0  75883-4 0  9994","ARG_OF_PERICENTER":"59.9585","APOAPSIS":"548.485","RA_OF_ASC_NODE":"272.4130","COUNTRY_CODE":"US","ELEMENT_SET_NO":"999","MEAN_MOTION_DOT":"0.00000849","GP_ID":"191101641","LAUNCH_DATE":"2020-08-07","SITE":"AFETR","MEAN_MOTION":"15.06392850","FILE":"3232651","SEMIMAJOR_AXIS":"6925.370","MEAN_ANOMALY":"300.1583","NORAD_CAT_ID":"46041","OBJECT_NAME":"STARLINK-1580","OBJECT_ID":"2020-055Q","PERIOD":"95.593","OBJECT_TYPE":"PAYLOAD","MEAN_ELEMENT_THEORY":"SGP4","TIME_SYSTEM":"UTC","RCS_SIZE":"LARGE","DECAY_DATE":null,"EPHEMERIS_TYPE":"0","EPOCH":"2021-12-04T13:12:17.313696","PERIAPSIS":"545.986","BSTAR":"0.00007588300000"},{"ECCENTRICITY":"0.00020200","ARG_OF_PERICENTER":"62.0983","MEAN_MOTION_DDOT":"0.0000000000000","TLE_LINE1":"1 46042U 20055R   21338.79809990  .00000545  00000-0  55482-4 0  9998","REF_FRAME":"TEME","CENTER_NAME":"EARTH","INCLINATION":"53.0554","TLE_LINE2":"2 46042  53.0554 271.2970 0002020  62.0983 298.0211 15.06394166 74342","REV_AT_EPOCH":"7434","CLASSIFICATION_TYPE":"U","MEAN_MOTION_DOT":"0.00000545","ELEMENT_SET_NO":"999","MEAN_MOTION":"15.06394166","FILE":"3232651","SEMIMAJOR_AXIS":"6925.366","GP_ID":"191101892","SITE":"AFETR","LAUNCH_DATE":"2020-08-07","COUNTRY_CODE":"US","RA_OF_ASC_NODE":"271.2970","APOAPSIS":"548.630","PERIOD":"95.593","OBJECT_ID":"2020-055R","OBJECT_TYPE":"PAYLOAD","MEAN_ANOMALY":"298.0211","OBJECT_NAME":"STARLINK-1581","NORAD_CAT_ID":"46042","PERIAPSIS":"545.833","BSTAR":"0.00005548200000","TIME_SYSTEM":"UTC","RCS_SIZE":"LARGE","MEAN_ELEMENT_THEORY":"SGP4","EPOCH":"2021-12-04T19:09:15.831360","DECAY_DATE":null,"EPHEMERIS_TYPE":"0"},{"OBJECT_TYPE":"PAYLOAD","PERIOD":"95.592","OBJECT_ID":"2020-055S","NORAD_CAT_ID":"46043","OBJECT_NAME":"STARLINK-1582","MEAN_ANOMALY":"297.7886","BSTAR":"0.00014781000000","PERIAPSIS":"545.760","EPHEMERIS_TYPE":"0","DECAY_DATE":null,"EPOCH":"2021-12-04T07:49:51.682368","MEAN_ELEMENT_THEORY":"SGP4","RCS_SIZE":"LARGE","TIME_SYSTEM":"UTC","TLE_LINE1":"1 46043U 20055S   21338.32629262  .00001921  00000-0  14781-3 0  9995","MEAN_MOTION_DDOT":"0.0000000000000","ARG_OF_PERICENTER":"62.3315","ECCENTRICITY":"0.00020940","CLASSIFICATION_TYPE":"U","REV_AT_EPOCH":"7430","TLE_LINE2":"2 46043  53.0546 273.4137 0002094  62.3315 297.7886 15.06401266 74306","INCLINATION":"53.0546","CENTER_NAME":"EARTH","REF_FRAME":"TEME","LAUNCH_DATE":"2020-08-07","GP_ID":"191100640","SITE":"AFETR","FILE":"3232651","SEMIMAJOR_AXIS":"6925.345","MEAN_MOTION":"15.06401266","ELEMENT_SET_NO":"999","MEAN_MOTION_DOT":"0.00001921","APOAPSIS":"548.660","RA_OF_ASC_NODE":"273.4137","COUNTRY_CODE":"US"},{"OBJECT_TYPE":"PAYLOAD","PERIOD":"95.593","OBJECT_ID":"2020-055T","MEAN_ANOMALY":"305.8246","OBJECT_NAME":"STARLINK-1584","NORAD_CAT_ID":"46044","PERIAPSIS":"545.870","BSTAR":"-0.00009784400000","TIME_SYSTEM":"UTC","RCS_SIZE":"LARGE","MEAN_ELEMENT_THEORY":"SGP4","EPOCH":"2021-12-04T19:19:53.216256","EPHEMERIS_TYPE":"0","DECAY_DATE":null,"ECCENTRICITY":"0.00019840","ARG_OF_PERICENTER":"54.2927","TLE_LINE1":"1 46044U 20055T   21338.80547704 -.00001738  00000-0 -97844-4 0  9999","MEAN_MOTION_DDOT":"0.0000000000000","CENTER_NAME":"EARTH","REF_FRAME":"TEME","INCLINATION":"53.0546","TLE_LINE2":"2 46044  53.0546 271.2526 0001984  54.2927 305.8246 15.06390086 74387","REV_AT_EPOCH":"7438","CLASSIFICATION_TYPE":"U","MEAN_MOTION_DOT":"-0.00001738","ELEMENT_SET_NO":"999","FILE":"3232651","SEMIMAJOR_AXIS":"6925.379","MEAN_MOTION":"15.06390086","GP_ID":"191101390","LAUNCH_DATE":"2020-08-07","SITE":"AFETR","COUNTRY_CODE":"US","RA_OF_ASC_NODE":"271.2526","APOAPSIS":"548.618"},{"PERIAPSIS":"545.666","BSTAR":"0.00009062600000","MEAN_ELEMENT_THEORY":"SGP4","RCS_SIZE":"LARGE","TIME_SYSTEM":"UTC","EPHEMERIS_TYPE":"0","DECAY_DATE":null,"EPOCH":"2021-12-04T13:13:38.222112","OBJECT_TYPE":"PAYLOAD","OBJECT_ID":"2020-055U","PERIOD":"95.592","MEAN_ANOMALY":"301.5976","NORAD_CAT_ID":"46045","OBJECT_NAME":"STARLINK-1591","ELEMENT_SET_NO":"999","MEAN_MOTION_DOT":"0.00001068","LAUNCH_DATE":"2020-08-07","GP_ID":"191102141","SITE":"AFETR","SEMIMAJOR_AXIS":"6925.346","FILE":"3232651","MEAN_MOTION":"15.06400934","APOAPSIS":"548.755","COUNTRY_CODE":"US","RA_OF_ASC_NODE":"272.4004","ECCENTRICITY":"0.00022300","TLE_LINE1":"1 46045U 20055U   21338.55113683  .00001068  00000-0  90626-4 0  9992","MEAN_MOTION_DDOT":"0.0000000000000","ARG_OF_PERICENTER":"58.5231","INCLINATION":"53.0538","CENTER_NAME":"EARTH","REF_FRAME":"TEME","CLASSIFICATION_TYPE":"U","REV_AT_EPOCH":"7432","TLE_LINE2":"2 46045  53.0538 272.4004 0002230  58.5231 301.5976 15.06400934 74324"}];
